KUIPER-00038            
1 63750U 25088AC  26068.79279652 -.00005360  00000+0 -67544-3 0  9997
2 63750  51.8997  97.6390 0000454  90.9171 269.1843 14.79885691 47536
DOJO                    
1 65302U 25185F   26068.71619938  .00005335  00000+0  75655-3 0  9999
2 65302  97.9656 153.1684 0011750  55.9365 304.2959 14.77363090 29143
